$$SOE
2461302.500000000, A.D. 2026-Sep-19 00:00:00.0000, 3.820077752240241E+08, -3.346860796677491E+08, 1.046455084452108E+06,
2461309.500000000, A.D. 2026-Sep-26 00:00:00.0000, 3.881143212373800E+08, -3.274886339807717E+08, -4.305107582819462E+05,
2461316.500000000, A.D. 2026-Oct-03 00:00:00.0000, 3.940770169870236E+08, -3.201698241113037E+08, -1.907317195437625E+06,
2461323.500000000, A.D. 2026-Oct-10 00:00:00.0000, 3.998935900796252E+08, -3.127323151465133E+08, -3.383416427711561E+06,
2461330.500000000, A.D. 2026-Oct-17 00:00:00.0000, 4.055618134186310E+08, -3.051788128413571E+08, -4.858260416459262E+06,
2461337.500000000, A.D. 2026-Oct-24 00:00:00.0000, 4.110795057297670E+08, -2.975120631213245E+08, -6.331301007641092E+06,
2461344.500000000, A.D. 2026-Oct-31 00:00:00.0000, 4.164445321783904E+08, -2.897348517450346E+08, -7.801990078482285E+06,
2461351.500000000, A.D. 2026-Nov-07 00:00:00.0000, 4.216548054172375E+08, -2.818500040518092E+08, -9.269779731864557E+06,
2461358.500000000, A.D. 2026-Nov-14 00:00:00.0000, 4.267082872657632E+08, -2.738603839058684E+08, -1.073412248420878E+07,
2461365.500000000, A.D. 2026-Nov-21 00:00:00.0000, 4.316029892102123E+08, -2.657688911552915E+08, -1.219447122473304E+07,
2461372.500000000, A.D. 2026-Nov-28 00:00:00.0000, 4.363369707260952E+08, -2.575784606140295E+08, -1.365027910022022E+07,
2461379.500000000, A.D. 2026-Dec-05 00:00:00.0000, 4.409083390414528E+08, -2.492920632221808E+08, -1.510099971078970E+07,
2461386.500000000, A.D. 2026-Dec-12 00:00:00.0000, 4.453152505056679E+08, -2.409127062721295E+08, -1.654608737735136E+07,
2461393.500000000, A.D. 2026-Dec-19 00:00:00.0000, 4.495559116770706E+08, -2.324434326934556E+08, -1.798499730689782E+07,
2461400.500000000, A.D. 2026-Dec-26 00:00:00.0000, 4.536285799871843E+08, -2.238873202642704E+08, -1.941718571334153E+07,
2461407.500000000, A.D. 2027-Jan-02 00:00:00.0000, 4.575315642572854E+08, -2.152474809395045E+08, -2.084210993468617E+07,
2461414.500000000, A.D. 2027-Jan-09 00:00:00.0000, 4.612632251836805E+08, -2.065270602756263E+08, -2.225922855554894E+07,
2461421.500000000, A.D. 2027-Jan-16 00:00:00.0000, 4.648219758260519E+08, -1.977292369427173E+08, -2.366800153754538E+07,
2461428.500000000, A.D. 2027-Jan-23 00:00:00.0000, 4.682062821433312E+08, -1.888572223633536E+08, -2.506789036504886E+07,
2461435.500000000, A.D. 2027-Jan-30 00:00:00.0000, 4.714146637626743E+08, -1.799142605257262E+08, -2.645835822755958E+07,
2461442.500000000, A.D. 2027-Feb-06 00:00:00.0000, 4.744456954039386E+08, -1.709036276299969E+08, -2.783887024997845E+07,
2461449.500000000, A.D. 2027-Feb-13 00:00:00.0000, 4.772980084981767E+08, -1.618286303470649E+08, -2.920889362901387E+07,
2461456.500000000, A.D. 2027-Feb-20 00:00:00.0000, 4.799702906362669E+08, -1.526926034808004E+08, -3.056789752379183E+07,
2461463.500000000, A.D. 2027-Feb-27 00:00:00.0000, 4.824612842423614E+08, -1.434989102478782E+08, -3.191535309165701E+07,
2461470.500000000, A.D. 2027-Mar-06 00:00:00.0000, 4.847697874882400E+08, -1.342509432517211E+08, -3.325073378911174E+07,
2461477.500000000, A.D. 2027-Mar-13 00:00:00.0000, 4.868946558476803E+08, -1.249521240998516E+08, -3.457351562383543E+07,
2461484.500000000, A.D. 2027-Mar-20 00:00:00.0000, 4.888348031615160E+08, -1.156059024985716E+08, -3.588317732262472E+07,
2461491.500000000, A.D. 2027-Mar-27 00:00:00.0000, 4.905892024154204E+08, -1.062157553733425E+08, -3.717920047884281E+07,
2461498.500000000, A.D. 2027-Apr-03 00:00:00.0000, 4.921568864332665E+08, -9.678518606197995E+07, -3.846106970205985E+07,
2461505.500000000, A.D. 2027-Apr-10 00:00:00.0000, 4.935369485473241E+08, -8.731772355697176E+07, -3.972827277376797E+07,
2461512.500000000, A.D. 2027-Apr-17 00:00:00.0000, 4.947285432674671E+08, -7.781692181073472E+07, -4.098030081250940E+07,
2461519.500000000, A.D. 2027-Apr-24 00:00:00.0000, 4.957308870285697E+08, -6.828635916577628E+07, -4.221664846091153E+07,
2461526.500000000, A.D. 2027-May-01 00:00:00.0000, 4.965432593149590E+08, -5.872963788196440E+07, -4.343681411993235E+07,
2461533.500000000, A.D. 2027-May-08 00:00:00.0000, 4.971650044677128E+08, -4.915038301200494E+07, -4.464030019729256E+07,
2461540.500000000, A.D. 2027-May-15 00:00:00.0000, 4.975955326770748E+08, -3.955223967056970E+07, -4.582661315475862E+07,
2461547.500000000, A.D. 2027-May-22 00:00:00.0000, 4.978343185961756E+08, -2.993887128847397E+07, -4.699526342263587E+07,
2461554.500000000, A.D. 2027-May-29 00:00:00.0000, 4.978809009301398E+08, -2.031396032007419E+07, -4.814576560912808E+07,
2461561.500000000, A.D. 2027-Jun-05 00:00:00.0000, 4.977348838831088E+08, -1.068120827037377E+07, -4.927763882946635E+07,
2461568.500000000, A.D. 2027-Jun-12 00:00:00.0000, 4.973959384554445E+08, -1.044334607997835E+06, -5.039040693522363E+07,
2461575.500000000, A.D. 2027-Jun-19 00:00:00.0000, 4.968638032609734E+08, 8.592924502056465E+06, -5.148359868985312E+07,
2461582.500000000, A.D. 2027-Jun-26 00:00:00.0000, 4.961382851443842E+08, 1.822681738490270E+07, -5.255674793743461E+07,
2461589.500000000, A.D. 2027-Jul-03 00:00:00.0000, 4.952192597309759E+08, 2.785357796978146E+07, -5.360939377599125E+07,
2461596.500000000, A.D. 2027-Jul-10 00:00:00.0000, 4.941066719451079E+08, 3.746942684037816E+07, -5.464108073787203E+07,
2461603.500000000, A.D. 2027-Jul-17 00:00:00.0000, 4.928005365329263E+08, 4.707057218277590E+07, -5.565135898348214E+07,
2461610.500000000, A.D. 2027-Jul-24 00:00:00.0000, 4.913009387448665E+08, 5.665321056841624E+07, -5.663978452760874E+07,
2461617.500000000, A.D. 2027-Jul-31 00:00:00.0000, 4.896080355877944E+08, 6.621352780760531E+07, -5.760591951653913E+07,
2461624.500000000, A.D. 2027-Aug-07 00:00:00.0000, 4.877220574437041E+08, 7.574770102602124E+07, -5.854933244299793E+07,
2461631.500000000, A.D. 2027-Aug-14 00:00:00.0000, 4.856433077530734E+08, 8.525190171271849E+07, -5.946959810831271E+07,
2461638.500000000, A.D. 2027-Aug-21 00:00:00.0000, 4.833721613820844E+08, 9.472229637595066E+07, -6.036629766368213E+07,
2461645.500000000, A.D. 2027-Aug-28 00:00:00.0000, 4.809090651036034E+08, 1.041550460093707E+08, -6.123901894697811E+07,
2461652.500000000, A.D. 2027-Sep-04 00:00:00.0000, 4.782545390085751E+08, 1.135463068712829E+08, -6.208735680215947E+07,
2461659.500000000, A.D. 2027-Sep-11 00:00:00.0000, 4.754091774513711E+08, 1.228922319163685E+08, -6.291091330746566E+07,
2461666.500000000, A.D. 2027-Sep-18 00:00:00.0000, 4.723736496614567E+08, 1.321889722301675E+08, -6.370929797795019E+07,
2461673.500000000, A.D. 2027-Sep-25 00:00:00.0000, 4.691487002492266E+08, 1.414326783890319E+08, -6.448212796988139E+07,
2461680.500000000, A.D. 2027-Oct-02 00:00:00.0000, 4.657351496798296E+08, 1.506195017734700E+08, -6.522902829177365E+07,
2461687.500000000, A.D. 2027-Oct-09 00:00:00.0000, 4.621338947360879E+08, 1.597455958308037E+08, -6.594963202453795E+07,
2461694.500000000, A.D. 2027-Oct-16 00:00:00.0000, 4.583459090323360E+08, 1.688071172327738E+08, -6.664358056104475E+07,
2461701.500000000, A.D. 2027-Oct-23 00:00:00.0000, 4.543722438377916E+08, 1.778002269227899E+08, -6.731052388940473E+07,
2461708.500000000, A.D. 2027-Oct-30 00:00:00.0000, 4.502140295823243E+08, 1.867210916630834E+08, -6.795012090433015E+07,
2461715.500000000, A.D. 2027-Nov-06 00:00:00.0000, 4.458724768782358E+08, 1.955658872104151E+08, -6.856203954725236E+07,
2461722.500000000, A.D. 2027-Nov-13 00:00:00.0000, 4.413488750714769E+08, 2.043308010463408E+08, -6.914595676270232E+07,
2461729.500000000, A.D. 2027-Nov-20 00:00:00.0000, 4.366445912252122E+08, 2.130120324770135E+08, -6.970155871621861E+07,
2461736.500000000, A.D. 2027-Nov-27 00:00:00.0000, 4.317610711521986E+08, 2.216057930660762E+08, -7.022854117988247E+07,
2461743.500000000, A.D. 2027-Dec-04 00:00:00.0000, 4.266998404703874E+08, 2.301083083144205E+08, -7.072660982491824E+07,
2461750.500000000, A.D. 2027-Dec-11 00:00:00.0000, 4.214625051299412E+08, 2.385158196230694E+08, -7.119548044949603E+07,
2461757.500000000, A.D. 2027-Dec-18 00:00:00.0000, 4.160507516856366E+08, 2.468245862000702E+08, -7.163487919454445E+07,
2461764.500000000, A.D. 2027-Dec-25 00:00:00.0000, 4.104663474655386E+08, 2.550308869090208E+08, -7.204454276152582E+07,
2461771.500000000, A.D. 2028-Jan-01 00:00:00.0000, 4.047111406761798E+08, 2.631310220734187E+08, -7.242421863456827E+07,
$$EOE